{"type": "FeatureCollection", "features": [ {"type": "Feature", "properties": {"norad_id": 33870, "name": "IRIDIUM 33 DEB", "group": "iridium-33-debris", "lat": 63.81484232275694, "lon": 59.64048006455243, "alt_km": 727.1666213380449, "timestamp": "2025-12-26T19:22:39.293379+00:00", "meta": {"OBJECT_NAME": "IRIDIUM 33 DEB", "OBJECT_ID": "1997-051AP", "EPOCH": "2025-12-26T14:47:54.489696", "MEAN_MOTION": 14.45919153, "ECCENTRICITY": 0.00227559, "INCLINATION": 86.3733, "RA_OF_ASC_NODE": 52.3117, "ARG_OF_PERICENTER": 134.2343, "MEAN_ANOMALY": 17.5876, "EPHEMERIS_TYPE": 0, "CLASSIFICATION_TYPE": "U", "NORAD_CAT_ID": 33870, "ELEMENT_SET_NO": 999, "REV_AT_EPOCH": 88337, "BSTAR": 0.00069882256, "MEAN_MOTION_DOT": 2.511e-05, "MEAN_MOTION_DDOT": 0}, "tle": {"line1": "1 33870U 97051AP  25360.61660289  .00002511  00000+0  69882-3 0  9991", "line2": "2 33870  86.3733  52.3117 0022755 134.2343  17.5876 14.45919153883378"}}, "geometry": {"type": "Point", "coordinates": [59.64048006455243, 63.81484232275694]}}, {"type": "Feature", "properties": {"norad_id": 33881, "name": "IRIDIUM 33 DEB", "group": "iridium-33-debris", "lat": 60.52018850508597, "lon": -85.79272079583598, "alt_km": 655.0685666600966, "timestamp": "2025-12-26T19:22:39.293391+00:00", "meta": {"OBJECT_NAME": "IRIDIUM 33 DEB", "OBJECT_ID": "1997-051BA", "EPOCH": "2025-12-26T15:47:14.085024", "MEAN_MOTION": 14.56829461, "ECCENTRICITY": 0.00609996, "INCLINATION": 86.3853, "RA_OF_ASC_NODE": 100.6927, "ARG_OF_PERICENTER": 129.6306, "MEAN_ANOMALY": 285.6415, "EPHEMERIS_TYPE": 0, "CLASSIFICATION_TYPE": "U", "NORAD_CAT_ID": 33881, "ELEMENT_SET_NO": 999, "REV_AT_EPOCH": 87703, "BSTAR": 0.0022432869, "MEAN_MOTION_DOT": 0.00010332, "MEAN_MOTION_DDOT": 0}, "tle": {"line1": "1 33881U 97051BA  25360.65780191  .00010332  00000+0  22433-2 0  9992", "line2": "2 33881  86.3853 100.6927 0060999 129.6306 285.6415 14.56829461877035"}}, "geometry": {"type": "Point", "coordinates": [-85.79272079583598, 60.52018850508597]}}, {"type": "Feature", "properties": {"norad_id": 33884, "name": "IRIDIUM 33 DEB", "group": "iridium-33-debris", "lat": 41.0998201576827, "lon": 6.641105188581636, "alt_km": 637.5543660038893, "timestamp": "2025-12-26T19:22:39.293414+00:00", "meta": {"OBJECT_NAME": "IRIDIUM 33 DEB", "OBJECT_ID": "1997-051BD", "EPOCH": "2025-12-26T11:45:10.238976", "MEAN_MOTION": 14.77706795, "ECCENTRICITY": 0.00088046, "INCLINATION": 86.3712, "RA_OF_ASC_NODE": 3.6109, "ARG_OF_PERICENTER": 269.9643, "MEAN_ANOMALY": 242.2854, "EPHEMERIS_TYPE": 0, "CLASSIFICATION_TYPE": "U", "NORAD_CAT_ID": 33884, "ELEMENT_SET_NO": 999, "REV_AT_EPOCH": 89050, "BSTAR": 0.0015056311, "MEAN_MOTION_DOT": 0.00010823, "MEAN_MOTION_DDOT": 0}, "tle": {"line1": "1 33884U 97051BD  25360.48970184  .00010823  00000+0  15056-2 0  9997", "line2": "2 33884  86.3712   3.6109 0008804 269.9643 242.2854 14.77706795890505"}}, "geometry": {"type": "Point", "coordinates": [6.641105188581636, 41.0998201576827]}}, {"type": "Feature", "properties": {"norad_id": 33886, "name": "IRIDIUM 33 DEB", "group": "iridium-33-debris", "lat": 27.883196487217, "lon": 63.225474672033, "alt_km": 779.7923254219158, "timestamp": "2025-12-26T19:22:39.293427+00:00", "meta": {"OBJECT_NAME": "IRIDIUM 33 DEB", "OBJECT_ID": "1997-051BF", "EPOCH": "2025-12-26T14:45:54.639072", "MEAN_MOTION": 14.36067742, "ECCENTRICITY": 0.00136578, "INCLINATION": 86.3819, "RA_OF_ASC_NODE": 61.3879, "ARG_OF_PERICENTER": 192.7494, "MEAN_ANOMALY": 282.4081, "EPHEMERIS_TYPE": 0, "CLASSIFICATION_TYPE": "U", "NORAD_CAT_ID": 33886, "ELEMENT_SET_NO": 999, "REV_AT_EPOCH": 88251, "BSTAR": 0.00019455138, "MEAN_MOTION_DOT": 5.86e-06, "MEAN_MOTION_DDOT": 0}, "tle": {"line1": "1 33886U 97051BF  25360.61521573  .00000586  00000+0  19455-3 0  9991", "line2": "2 33886  86.3819  61.3879 0013657 192.7494 282.4081 14.36067742882516"}}, "geometry": {"type": "Point", "coordinates": [63.225474672033, 27.883196487217]}}, {"type": "Feature", "properties": {"norad_id": 33887, "name": "IRIDIUM 33 DEB", "group": "iridium-33-debris", "lat": 23.210495405203943, "lon": -1.0823087098414008, "alt_km": 770.9547421480647, "timestamp": "2025-12-26T19:22:39.293438+00:00", "meta": {"OBJECT_NAME": "IRIDIUM 33 DEB", "OBJECT_ID": "1997-051BG", "EPOCH": "2025-12-26T01:09:55.785312", "MEAN_MOTION": 14.37232581, "ECCENTRICITY": 0.00058983, "INCLINATION": 86.3044, "RA_OF_ASC_NODE": 357.6564, "ARG_OF_PERICENTER": 176.4648, "MEAN_ANOMALY": 243.1701, "EPHEMERIS_TYPE": 0, "CLASSIFICATION_TYPE": "U", "NORAD_CAT_ID": 33887, "ELEMENT_SET_NO": 999, "REV_AT_EPOCH": 88356, "BSTAR": 0.00014545145, "MEAN_MOTION_DOT": 4.53e-06, "MEAN_MOTION_DDOT": 0}, "tle": {"line1": "1 33887U 97051BG  25360.04856233  .00000453  00000+0  14545-3 0  9991", "line2": "2 33887  86.3044 357.6564 0005898 176.4648 243.1701 14.37232581883562"}}, "geometry": {"type": "Point", "coordinates": [-1.0823087098414008, 23.210495405203943]}}, {"type": "Feature", "properties": {"norad_id": 33953, "name": "IRIDIUM 33 DEB", "group": "iridium-33-debris", "lat": 76.84544214948058, "lon": 63.373524866989314, "alt_km": 688.9717903792998, "timestamp": "2025-12-26T19:22:39.293449+00:00", "meta": {"OBJECT_NAME": "IRIDIUM 33 DEB", "OBJECT_ID": "1997-051BN", "EPOCH": "2025-12-26T14:46:02.740800", "MEAN_MOTION": 14.55451821, "ECCENTRICITY": 0.00174505, "INCLINATION": 86.3834, "RA_OF_ASC_NODE": 47.7557, "ARG_OF_PERICENTER": 60.1468, "MEAN_ANOMALY": 91.3298, "EPHEMERIS_TYPE": 0, "CLASSIFICATION_TYPE": "U", "NORAD_CAT_ID": 33953, "ELEMENT_SET_NO": 999, "REV_AT_EPOCH": 88505, "BSTAR": 0.0011158645, "MEAN_MOTION_DOT": 4.881e-05, "MEAN_MOTION_DDOT": 0}, "tle": {"line1": "1 33953U 97051BN  25360.61530950  .00004881  00000+0  11159-2 0  9999", "line2": "2 33953  86.3834  47.7557 0017450  60.1468  91.3298 14.55451821885058"}}, "geometry": {"type": "Point", "coordinates": [63.373524866989314, 76.84544214948058]}}, {"type": "Feature", "properties": {"norad_id": 33960, "name": "IRIDIUM 33 DEB", "group": "iridium-33-debris", "lat": -33.92157332324645, "lon": -79.64620495812346, "alt_km": 615.4997652532556, "timestamp": "2025-12-26T19:22:39.293460+00:00", "meta": {"OBJECT_NAME": "IRIDIUM 33 DEB", "OBJECT_ID": "1997-051BV", "EPOCH": "2025-12-26T13:36:40.279968", "MEAN_MOTION": 14.85895569, "ECCENTRICITY": 0.00069794, "INCLINATION": 86.2535, "RA_OF_ASC_NODE": 282.9929, "ARG_OF_PERICENTER": 38.4617, "MEAN_ANOMALY": 83.3231, "EPHEMERIS_TYPE": 0, "CLASSIFICATION_TYPE": "U", "NORAD_CAT_ID": 33960, "ELEMENT_SET_NO": 999, "REV_AT_EPOCH": 89072, "BSTAR": 0.0032635074, "MEAN_MOTION_DOT": 0.0002856, "MEAN_MOTION_DDOT": 0}, "tle": {"line1": "1 33960U 97051BV  25360.56713287  .00028560  00000+0  32635-2 0  9999", "line2": "2 33960  86.2535 282.9929 0006979  38.4617  83.3231 14.85895569890729"}}, "geometry": {"type": "Point", "coordinates": [-79.64620495812346, -33.92157332324645]}}, {"type": "Feature", "properties": {"norad_id": 33966, "name": "IRIDIUM 33 DEB", "group": "iridium-33-debris", "lat": -85.99854401162541, "lon": -24.464902081542526, "alt_km": 738.0307153662379, "timestamp": "2025-12-26T19:22:39.293474+00:00", "meta": {"OBJECT_NAME": "IRIDIUM 33 DEB", "OBJECT_ID": "1997-051CB", "EPOCH": "2025-12-26T15:23:33.736416", "MEAN_MOTION": 14.49646818, "ECCENTRICITY": 0.00088807, "INCLINATION": 86.391, "RA_OF_ASC_NODE": 40.0602, "ARG_OF_PERICENTER": 145.5538, "MEAN_ANOMALY": 340.1487, "EPHEMERIS_TYPE": 0, "CLASSIFICATION_TYPE": "U", "NORAD_CAT_ID": 33966, "ELEMENT_SET_NO": 999, "REV_AT_EPOCH": 88643, "BSTAR": 0.00051075448, "MEAN_MOTION_DOT": 1.983e-05, "MEAN_MOTION_DDOT": 0}, "tle": {"line1": "1 33966U 97051CB  25360.64136269  .00001983  00000+0  51075-3 0  9993", "line2": "2 33966  86.3910  40.0602 0008880 145.5538 340.1487 14.49646818886430"}}, "geometry": {"type": "Point", "coordinates": [-24.464902081542526, -85.99854401162541]}}, {"type": "Feature", "properties": {"norad_id": 34071, "name": "IRIDIUM 33 DEB", "group": "iridium-33-debris", "lat": -28.477168646299486, "lon": 9.725945098603875, "alt_km": 734.1143971863976, "timestamp": "2025-12-26T19:22:39.293485+00:00", "meta": {"OBJECT_NAME": "IRIDIUM 33 DEB", "OBJECT_ID": "1997-051CE", "EPOCH": "2025-12-26T11:13:30.258048", "MEAN_MOTION": 14.49524839, "ECCENTRICITY": 0.00098087, "INCLINATION": 86.3453, "RA_OF_ASC_NODE": 11.8604, "ARG_OF_PERICENTER": 70.8621, "MEAN_ANOMALY": 289.3644, "EPHEMERIS_TYPE": 0, "CLASSIFICATION_TYPE": "U", "NORAD_CAT_ID": 34071, "ELEMENT_SET_NO": 999, "REV_AT_EPOCH": 88533, "BSTAR": 0.00061986752, "MEAN_MOTION_DOT": 2.397e-05, "MEAN_MOTION_DDOT": 0}, "tle": {"line1": "1 34071U 97051CE  25360.46771132  .00002397  00000+0  61987-3 0  9998", "line2": "2 34071  86.3453  11.8604 0009808  70.8621 289.3644 14.49524839885337"}}, "geometry": {"type": "Point", "coordinates": [9.725945098603875, -28.477168646299486]}}, {"type": "Feature", "properties": {"norad_id": 34077, "name": "IRIDIUM 33 DEB", "group": "iridium-33-debris", "lat": -53.76683528415252, "lon": -129.74165484991934, "alt_km": 687.0567321271983, "timestamp": "2025-12-26T19:22:39.293496+00:00", "meta": {"OBJECT_NAME": "IRIDIUM 33 DEB", "OBJECT_ID": "1997-051CL", "EPOCH": "2025-12-26T14:07:44.755680", "MEAN_MOTION": 14.65016351, "ECCENTRICITY": 0.00085783, "INCLINATION": 86.3849, "RA_OF_ASC_NODE": 45.4053, "ARG_OF_PERICENTER": 353.713, "MEAN_ANOMALY": 167.6, "EPHEMERIS_TYPE": 0, "CLASSIFICATION_TYPE": "U", "NORAD_CAT_ID": 34077, "ELEMENT_SET_NO": 999, "REV_AT_EPOCH": 88535, "BSTAR": 0.0016163201, "MEAN_MOTION_DOT": 8.69e-05, "MEAN_MOTION_DDOT": 0}, "tle": {"line1": "1 34077U 97051CL  25360.58871245  .00008690  00000+0  16163-2 0  9990", "line2": "2 34077  86.3849  45.4053 0008578 353.7130 167.6000 14.65016351885353"}}, "geometry": {"type": "Point", "coordinates": [-129.74165484991934, -53.76683528415252]}}]}